TRANSPORTER-12 OBJECT AZ
1 62656U 25009AZ  26068.71026235  .00016057  00000+0  54903-3 0  9991
2 62656  97.3981 151.9913 0000987  45.3581 314.7740 15.30349724 63792
STARLINK-34334          
1 64273U 25120T   26068.44854422  .00025378  00000+0  86638-3 0  9995
2 64273  53.1603 117.4995 0001514  66.6035 293.5125 15.30187106 43887
